{
  "type": "FeatureCollection",
  "features": [
    {
      "type": "Feature",
      "properties": {
        "norad_id": 35716,
        "name": "COSMOS 2251 DEB",
        "group": "cosmos-2251-debris",
        "lat": -21.77592302824135,
        "lon": -1.6790676590877223,
        "alt_km": 759.350026795626,
        "timestamp": "2025-12-24T11:33:00.415295+00:00",
        "meta_object_name": "COSMOS 2251 DEB",
        "meta_object_id": "1993-036AQM",
        "meta_epoch": "2025-12-23T05:49:55.043616",
        "meta_mean_motion": 14.60096888,
        "meta_eccentricity": 0.00892359,
        "meta_inclination": 73.9921,
        "meta_ra_of_asc_node": 174.1043,
        "meta_arg_of_pericenter": 12.4356,
        "meta_mean_anomaly": 164.342,
        "meta_ephemeris_type": 0,
        "meta_classification_type": "U",
        "meta_norad_cat_id": 35716,
        "meta_element_set_no": 999,
        "meta_rev_at_epoch": 87780,
        "meta_bstar": 8.3064383e-05,
        "meta_mean_motion_dot": 3.89e-06,
        "meta_mean_motion_ddot": 0,
        "tle_line1": "1 35716U 93036AQM 25357.24299819  .00000389  00000+0  83064-4 0  9993",
        "tle_line2": "2 35716  73.9921 174.1043 0089235  12.4356 164.3420 14.60096888877803"
      },
      "geometry": {
        "type": "Point",
        "coordinates": [
          -1.6790676590877223,
          -21.77592302824135
        ]
      }
    },
    {
      "type": "Feature",
      "properties": {
        "norad_id": 35717,
        "name": "COSMOS 2251 DEB",
        "group": "cosmos-2251-debris",
        "lat": 36.225532980252375,
        "lon": 4.010443391076935,
        "alt_km": 759.9109541294683,
        "timestamp": "2025-12-24T11:33:00.415305+00:00",
        "meta_object_name": "COSMOS 2251 DEB",
        "meta_object_id": "1993-036AQN",
        "meta_epoch": "2025-12-22T07:09:37.342368",
        "meta_mean_motion": 14.38552439,
        "meta_eccentricity": 0.00775013,
        "meta_inclination": 74.1587,
        "meta_ra_of_asc_node": 200.0085,
        "meta_arg_of_pericenter": 56.63,
        "meta_mean_anomaly": 304.224,
        "meta_ephemeris_type": 0,
        "meta_classification_type": "U",
        "meta_norad_cat_id": 35717,
        "meta_element_set_no": 999,
        "meta_rev_at_epoch": 74237,
        "meta_bstar": 0.0010958575,
        "meta_mean_motion_dot": 3.447e-05,
        "meta_mean_motion_ddot": 0,
        "tle_line1": "1 35717U 93036AQN 25356.29834887  .00003447  00000+0  10959-2 0  9997",
        "tle_line2": "2 35717  74.1587 200.0085 0077501  56.6300 304.2240 14.38552439742374"
      },
      "geometry": {
        "type": "Point",
        "coordinates": [
          4.010443391076935,
          36.225532980252375
        ]
      }
    },
    {
      "type": "Feature",
      "properties": {
        "norad_id": 35718,
        "name": "COSMOS 2251 DEB",
        "group": "cosmos-2251-debris",
        "lat": 71.80775598595395,
        "lon": 167.8528727609448,
        "alt_km": 655.4679139811451,
        "timestamp": "2025-12-24T11:33:00.415315+00:00",
        "meta_object_name": "COSMOS 2251 DEB",
        "meta_object_id": "1993-036AQP",
        "meta_epoch": "2025-12-23T13:55:54.385248",
        "meta_mean_motion": 14.68842893,
        "meta_eccentricity": 0.00097435,
        "meta_inclination": 74.0322,
        "meta_ra_of_asc_node": 108.9893,
        "meta_arg_of_pericenter": 156.5682,
        "meta_mean_anomaly": 203.5934,
        "meta_ephemeris_type": 0,
        "meta_classification_type": "U",
        "meta_norad_cat_id": 35718,
        "meta_element_set_no": 999,
        "meta_rev_at_epoch": 65999,
        "meta_bstar": 0.001680712,
        "meta_mean_motion_dot": 9.809e-05,
        "meta_mean_motion_ddot": 0,
        "tle_line1": "1 35718U 93036AQP 25357.58049057  .00009809  00000+0  16807-2 0  9994",
        "tle_line2": "2 35718  74.0322 108.9893 0009743 156.5682 203.5934 14.68842893659995"
      },
      "geometry": {
        "type": "Point",
        "coordinates": [
          167.8528727609448,
          71.80775598595395
        ]
      }
    },
    {
      "type": "Feature",
      "properties": {
        "norad_id": 35721,
        "name": "COSMOS 2251 DEB",
        "group": "cosmos-2251-debris",
        "lat": 73.62863415438702,
        "lon": -102.39500290831866,
        "alt_km": 862.5845483044468,
        "timestamp": "2025-12-24T11:33:00.415326+00:00",
        "meta_object_name": "COSMOS 2251 DEB",
        "meta_object_id": "1993-036AQS",
        "meta_epoch": "2025-12-09T19:36:39.465216",
        "meta_mean_motion": 14.34317214,
        "meta_eccentricity": 0.01465875,
        "meta_inclination": 73.9489,
        "meta_ra_of_asc_node": 183.1196,
        "meta_arg_of_pericenter": 330.1589,
        "meta_mean_anomaly": 29.126,
        "meta_ephemeris_type": 0,
        "meta_classification_type": "U",
        "meta_norad_cat_id": 35721,
        "meta_element_set_no": 999,
        "meta_rev_at_epoch": 57747,
        "meta_bstar": 0.0018396061,
        "meta_mean_motion_dot": 5.808e-05,
        "meta_mean_motion_ddot": 0,
        "tle_line1": "1 35721U 93036AQS 25343.81712344  .00005808  00000+0  18396-2 0  9995",
        "tle_line2": "2 35721  73.9489 183.1196 0146587 330.1589  29.1260 14.34317214577479"
      },
      "geometry": {
        "type": "Point",
        "coordinates": [
          -102.39500290831866,
          73.62863415438702
        ]
      }
    },
    {
      "type": "Feature",
      "properties": {
        "norad_id": 35724,
        "name": "COSMOS 2251 DEB",
        "group": "cosmos-2251-debris",
        "lat": -39.70339053963316,
        "lon": -93.41722445416255,
        "alt_km": 720.5922504234331,
        "timestamp": "2025-12-24T11:33:00.415336+00:00",
        "meta_object_name": "COSMOS 2251 DEB",
        "meta_object_id": "1993-036AQV",
        "meta_epoch": "2025-12-22T02:06:46.007136",
        "meta_mean_motion": 14.58219865,
        "meta_eccentricity": 0.0058953,
        "meta_inclination": 74.033,
        "meta_ra_of_asc_node": 284.8882,
        "meta_arg_of_pericenter": 75.7693,
        "meta_mean_anomaly": 285.001,
        "meta_ephemeris_type": 0,
        "meta_classification_type": "U",
        "meta_norad_cat_id": 35724,
        "meta_element_set_no": 999,
        "meta_rev_at_epoch": 87665,
        "meta_bstar": 0.00023860841,
        "meta_mean_motion_dot": 1.098e-05,
        "meta_mean_motion_ddot": 0,
        "tle_line1": "1 35724U 93036AQV 25356.08803249  .00001098  00000+0  23861-3 0  9997",
        "tle_line2": "2 35724  74.0330 284.8882 0058953  75.7693 285.0010 14.58219865876654"
      },
      "geometry": {
        "type": "Point",
        "coordinates": [
          -93.41722445416255,
          -39.70339053963316
        ]
      }
    },
    {
      "type": "Feature",
      "properties": {
        "norad_id": 35759,
        "name": "COSMOS 2251 DEB",
        "group": "cosmos-2251-debris",
        "lat": 71.30247458516942,
        "lon": -44.29555781151212,
        "alt_km": 717.6732297088965,
        "timestamp": "2025-12-24T11:33:00.415346+00:00",
        "meta_object_name": "COSMOS 2251 DEB",
        "meta_object_id": "1993-036ARD",
        "meta_epoch": "2025-12-23T21:58:59.337120",
        "meta_mean_motion": 14.64922516,
        "meta_eccentricity": 0.0077376,
        "meta_inclination": 74.0358,
        "meta_ra_of_asc_node": 194.553,
        "meta_arg_of_pericenter": 310.1974,
        "meta_mean_anomaly": 49.2438,
        "meta_ephemeris_type": 0,
        "meta_classification_type": "U",
        "meta_norad_cat_id": 35759,
        "meta_element_set_no": 999,
        "meta_rev_at_epoch": 66299,
        "meta_bstar": 0.00022748,
        "meta_mean_motion_dot": 1.237e-05,
        "meta_mean_motion_ddot": 0,
        "tle_line1": "1 35759U 93036ARD 25357.91596455  .00001237  00000+0  22748-3 0  9994",
        "tle_line2": "2 35759  74.0358 194.5530 0077376 310.1974  49.2438 14.64922516662992"
      },
      "geometry": {
        "type": "Point",
        "coordinates": [
          -44.29555781151212,
          71.30247458516942
        ]
      }
    },
    {
      "type": "Feature",
      "properties": {
        "norad_id": 35771,
        "name": "COSMOS 2251 DEB",
        "group": "cosmos-2251-debris",
        "lat": 73.27726361446571,
        "lon": 38.74501919472511,
        "alt_km": 942.7959743860865,
        "timestamp": "2025-12-24T11:33:00.415356+00:00",
        "meta_object_name": "COSMOS 2251 DEB",
        "meta_object_id": "1993-036ARR",
        "meta_epoch": "2025-12-15T14:45:16.238592",
        "meta_mean_motion": 14.13430046,
        "meta_eccentricity": 0.02280549,
        "meta_inclination": 74.1561,
        "meta_ra_of_asc_node": 305.27,
        "meta_arg_of_pericenter": 242.9998,
        "meta_mean_anomaly": 114.7698,
        "meta_ephemeris_type": 0,
        "meta_classification_type": "U",
        "meta_norad_cat_id": 35771,
        "meta_element_set_no": 999,
        "meta_rev_at_epoch": 82901,
        "meta_bstar": 0.0026764238,
        "meta_mean_motion_dot": 6.427e-05,
        "meta_mean_motion_ddot": 0,
        "tle_line1": "1 35771U 93036ARR 25349.61477128  .00006427  00000+0  26764-2 0  9998",
        "tle_line2": "2 35771  74.1561 305.2700 0228054 242.9998 114.7698 14.13430046829012"
      },
      "geometry": {
        "type": "Point",
        "coordinates": [
          38.74501919472511,
          73.27726361446571
        ]
      }
    }
  ]
}